YOTSUBA-KULOVER         
1 65941U 98067XN  26070.15958448  .00251035  00000+0  12153-2 0  9993
2 65941  51.6213  49.6653 0005363  77.4147 282.7454 15.81236605 23739
E-KAGAKU-1              
1 65943U 98067XQ  26070.22759112  .00242861  00000+0  11956-2 0  9997
2 65943  51.6235  49.3873 0005837  84.4935 275.6732 15.80890541 23740
HRC MONOBLOCK CAMERA    
1 66052U 98067XR  26070.23553355  .00059053  00000+0  65425-3 0  9991
2 66052  51.6284  57.7302 0003689  99.5836 260.5574 15.62390201 22638
HTV-X1                  
1 66174U 25241A   26069.48132270  .00008982  00000+0  17350-3 0  9993
2 66174  51.6323  68.4424 0007950 177.3713 182.7319 15.48562437554475
SZ-21 MODULE            
1 66515U 25246C   26069.39180921  .00046134  00000+0  39495-3 0  9998
2 66515  41.4733 199.0379 0001321 300.4317  59.6394 15.68612654 18188
SHENZHOU-22             
1 66645U 25272A   26070.12336260  .00029353  00000+0  34529-3 0  9990
2 66645  41.4661 199.4375 0006951 281.6206  78.3852 15.60746125269518
SOYUZ-MS 28             
1 66664U 25275A   26070.19118651  .00009215  00000+0  17770-3 0  9997
2 66664  51.6325  64.9326 0007932 179.9008 180.1983 15.48575655556587
DUPLEX                  
1 66906U 98067XS  26070.19149321  .00040148  00000+0  56317-3 0  9993
2 66906  51.6293  61.9382 0002544 119.4650 240.6595 15.56334996 15362
ISS OBJECT XT           
1 66907U 98067XT  26070.17463955  .00177829  00000+0  14349-2 0  9999
2 66907  51.6252  58.0596 0004748  87.5548 272.5993 15.69772347 15413
ISS OBJECT XU           
1 66908U 98067XU  26070.17272061  .00180739  00000+0  14503-2 0  9992
2 66908  51.6261  58.0443 0004897  89.2541 270.9017 15.69895705 15415
SILVERSAT               
1 66909U 98067XV  26070.17117215  .00224656  00000+0  15793-2 0  9991
2 66909  51.6250  57.2816 0005462  86.4811 273.6812 15.72899065 15428
ISS OBJECT XW           
1 66910U 98067XW  26070.17015407  .00156584  00000+0  13049-2 0  9999
2 66910  51.6254  58.0226 0005380  95.3448 264.8163 15.69060368 15414
